{"fetched_at":"2026-07-23T17:55:35.855Z","source":"https://celestrak.org/NORAD/elements/gp.php?NAME=ICEYE&FORMAT=JSON","constellation":"iceye","records":[{"OBJECT_NAME":"ICEYE-X53","OBJECT_ID":"2025-135BJ","EPOCH":"2026-07-23T07:00:25.953984","CLASSIFICATION_TYPE":"U","MEAN_MOTION":15.00927253,"ECCENTRICITY":0.00022907,"INCLINATION":97.7348,"RA_OF_ASC_NODE":320.9127,"ARG_OF_PERICENTER":163.3713,"MEAN_ANOMALY":196.7586,"EPHEMERIS_TYPE":0,"NORAD_CAT_ID":64584,"ELEMENT_SET_NO":999,"REV_AT_EPOCH":5949,"BSTAR":0.00030368683,"MEAN_MOTION_DOT":0.00003809,"MEAN_MOTION_DDOT":0},{"OBJECT_NAME":"ICEYE-X65","OBJECT_ID":"2025-248H","EPOCH":"2026-07-23T07:43:24.406464","CLASSIFICATION_TYPE":"U","MEAN_MOTION":15.07967303,"ECCENTRICITY":0.0006217,"INCLINATION":45.4055,"RA_OF_ASC_NODE":304.1629,"ARG_OF_PERICENTER":239.4737,"MEAN_ANOMALY":120.5532,"EPHEMERIS_TYPE":0,"NORAD_CAT_ID":66300,"ELEMENT_SET_NO":999,"REV_AT_EPOCH":4097,"BSTAR":0.00020570658,"MEAN_MOTION_DOT":0.00002964,"MEAN_MOTION_DDOT":0},{"OBJECT_NAME":"ICEYE-X66","OBJECT_ID":"2025-248J","EPOCH":"2026-07-23T07:30:22.601376","CLASSIFICATION_TYPE":"U","MEAN_MOTION":15.09219337,"ECCENTRICITY":0.00058342,"INCLINATION":45.4021,"RA_OF_ASC_NODE":303.2063,"ARG_OF_PERICENTER":235.4755,"MEAN_ANOMALY":124.5576,"EPHEMERIS_TYPE":0,"NORAD_CAT_ID":66301,"ELEMENT_SET_NO":999,"REV_AT_EPOCH":4096,"BSTAR":0.00020938781,"MEAN_MOTION_DOT":0.00003133,"MEAN_MOTION_DDOT":0},{"OBJECT_NAME":"ICEYE-X67","OBJECT_ID":"2025-248K","EPOCH":"2026-07-23T06:30:44.957088","CLASSIFICATION_TYPE":"U","MEAN_MOTION":15.09199939,"ECCENTRICITY":0.00073363,"INCLINATION":45.4056,"RA_OF_ASC_NODE":303.0072,"ARG_OF_PERICENTER":236.4002,"MEAN_ANOMALY":123.618,"EPHEMERIS_TYPE":0,"NORAD_CAT_ID":66302,"ELEMENT_SET_NO":999,"REV_AT_EPOCH":4097,"BSTAR":0.0002259893,"MEAN_MOTION_DOT":0.000034,"MEAN_MOTION_DDOT":0},{"OBJECT_NAME":"ICEYE-X58","OBJECT_ID":"2025-276CP","EPOCH":"2026-07-23T04:38:16.464768","CLASSIFICATION_TYPE":"U","MEAN_MOTION":15.17338416,"ECCENTRICITY":0.00029345,"INCLINATION":97.4189,"RA_OF_ASC_NODE":276.9072,"ARG_OF_PERICENTER":180.9063,"MEAN_ANOMALY":179.2166,"EPHEMERIS_TYPE":0,"NORAD_CAT_ID":66751,"ELEMENT_SET_NO":999,"REV_AT_EPOCH":3587,"BSTAR":0.00012396831,"MEAN_MOTION_DOT":0.00002407,"MEAN_MOTION_DDOT":0},{"OBJECT_NAME":"ICEYE-X59","OBJECT_ID":"2025-276CQ","EPOCH":"2026-07-23T03:31:13.758528","CLASSIFICATION_TYPE":"U","MEAN_MOTION":15.00803759,"ECCENTRICITY":0.00014742,"INCLINATION":97.4407,"RA_OF_ASC_NODE":273.9083,"ARG_OF_PERICENTER":126.1694,"MEAN_ANOMALY":233.9667,"EPHEMERIS_TYPE":0,"NORAD_CAT_ID":66752,"ELEMENT_SET_NO":999,"REV_AT_EPOCH":3566,"BSTAR":0.00033582459,"MEAN_MOTION_DOT":0.00004209,"MEAN_MOTION_DDOT":0},{"OBJECT_NAME":"ICEYE-X60","OBJECT_ID":"2025-276CR","EPOCH":"2026-07-21T10:12:56.896128","CLASSIFICATION_TYPE":"U","MEAN_MOTION":15.10963354,"ECCENTRICITY":0.00021257,"INCLINATION":97.4208,"RA_OF_ASC_NODE":274.0787,"ARG_OF_PERICENTER":166.7579,"MEAN_ANOMALY":193.3708,"EPHEMERIS_TYPE":0,"NORAD_CAT_ID":66753,"ELEMENT_SET_NO":999,"REV_AT_EPOCH":3553,"BSTAR":0.00024564021,"MEAN_MOTION_DOT":0.00004036,"MEAN_MOTION_DDOT":0},{"OBJECT_NAME":"ICEYE-X61","OBJECT_ID":"2025-276CS","EPOCH":"2026-07-23T04:54:34.957728","CLASSIFICATION_TYPE":"U","MEAN_MOTION":15.1864205,"ECCENTRICITY":0.00029301,"INCLINATION":97.4182,"RA_OF_ASC_NODE":277.0228,"ARG_OF_PERICENTER":182.2757,"MEAN_ANOMALY":177.8465,"EPHEMERIS_TYPE":0,"NORAD_CAT_ID":66754,"ELEMENT_SET_NO":999,"REV_AT_EPOCH":3588,"BSTAR":0.00014267606,"MEAN_MOTION_DOT":0.00002887,"MEAN_MOTION_DDOT":0},{"OBJECT_NAME":"ICEYE-X62","OBJECT_ID":"2025-276CT","EPOCH":"2026-07-23T04:14:07.160064","CLASSIFICATION_TYPE":"U","MEAN_MOTION":15.10207079,"ECCENTRICITY":0.00014094,"INCLINATION":97.4178,"RA_OF_ASC_NODE":275.2573,"ARG_OF_PERICENTER":195.1789,"MEAN_ANOMALY":164.9399,"EPHEMERIS_TYPE":0,"NORAD_CAT_ID":66755,"ELEMENT_SET_NO":999,"REV_AT_EPOCH":3576,"BSTAR":0.00032214501,"MEAN_MOTION_DOT":0.00005203,"MEAN_MOTION_DDOT":0},{"OBJECT_NAME":"ICEYE-X63","OBJECT_ID":"2026-004K","EPOCH":"2026-07-22T17:08:12.369984","CLASSIFICATION_TYPE":"U","MEAN_MOTION":14.88358842,"ECCENTRICITY":0.00049164,"INCLINATION":97.8019,"RA_OF_ASC_NODE":201.8013,"ARG_OF_PERICENTER":32.2134,"MEAN_ANOMALY":327.9382,"EPHEMERIS_TYPE":0,"NORAD_CAT_ID":67372,"ELEMENT_SET_NO":999,"REV_AT_EPOCH":2858,"BSTAR":0.000082400926,"MEAN_MOTION_DOT":0.00000708,"MEAN_MOTION_DDOT":0},{"OBJECT_NAME":"ICEYE-X64","OBJECT_ID":"2026-004L","EPOCH":"2026-07-22T16:44:08.054880","CLASSIFICATION_TYPE":"U","MEAN_MOTION":14.87999271,"ECCENTRICITY":0.00067327,"INCLINATION":97.8032,"RA_OF_ASC_NODE":201.701,"ARG_OF_PERICENTER":33.5498,"MEAN_ANOMALY":326.6144,"EPHEMERIS_TYPE":0,"NORAD_CAT_ID":67373,"ELEMENT_SET_NO":999,"REV_AT_EPOCH":2857,"BSTAR":0.00010379219,"MEAN_MOTION_DOT":0.00000898,"MEAN_MOTION_DDOT":0},{"OBJECT_NAME":"ICEYE-X71","OBJECT_ID":"2026-067CG","EPOCH":"2026-07-23T00:00:02.000160","CLASSIFICATION_TYPE":"U","MEAN_MOTION":14.92437526,"ECCENTRICITY":0.00004756,"INCLINATION":97.7615,"RA_OF_ASC_NODE":161.6871,"ARG_OF_PERICENTER":224.624,"MEAN_ANOMALY":48.7915,"EPHEMERIS_TYPE":0,"NORAD_CAT_ID":68494,"ELEMENT_SET_NO":999,"REV_AT_EPOCH":575,"BSTAR":-0.0027317567,"MEAN_MOTION_DOT":-0.00027924,"MEAN_MOTION_DDOT":0},{"OBJECT_NAME":"ICEYE-X73","OBJECT_ID":"2026-067CJ","EPOCH":"2026-07-22T20:07:23.982528","CLASSIFICATION_TYPE":"U","MEAN_MOTION":14.92374863,"ECCENTRICITY":0.00020821,"INCLINATION":97.7627,"RA_OF_ASC_NODE":161.6233,"ARG_OF_PERICENTER":136.7426,"MEAN_ANOMALY":223.3957,"EPHEMERIS_TYPE":0,"NORAD_CAT_ID":68496,"ELEMENT_SET_NO":999,"REV_AT_EPOCH":1704,"BSTAR":0.00023051287,"MEAN_MOTION_DOT":0.00002303,"MEAN_MOTION_DDOT":0},{"OBJECT_NAME":"ICEYE-X75","OBJECT_ID":"2026-067CK","EPOCH":"2026-07-22T20:15:11.048832","CLASSIFICATION_TYPE":"U","MEAN_MOTION":14.92186768,"ECCENTRICITY":0.00020179,"INCLINATION":97.761,"RA_OF_ASC_NODE":161.5922,"ARG_OF_PERICENTER":133.2738,"MEAN_ANOMALY":226.8649,"EPHEMERIS_TYPE":0,"NORAD_CAT_ID":68497,"ELEMENT_SET_NO":999,"REV_AT_EPOCH":1704,"BSTAR":0.00011233443,"MEAN_MOTION_DOT":0.00001088,"MEAN_MOTION_DDOT":0},{"OBJECT_NAME":"ICEYE-X74","OBJECT_ID":"2026-067CN","EPOCH":"2026-07-23T03:33:16.629696","CLASSIFICATION_TYPE":"U","MEAN_MOTION":14.91819386,"ECCENTRICITY":0.00003326,"INCLINATION":97.7638,"RA_OF_ASC_NODE":161.8473,"ARG_OF_PERICENTER":241.2048,"MEAN_ANOMALY":118.9137,"EPHEMERIS_TYPE":0,"NORAD_CAT_ID":68500,"ELEMENT_SET_NO":999,"REV_AT_EPOCH":1708,"BSTAR":0.00021007231,"MEAN_MOTION_DOT":0.00002064,"MEAN_MOTION_DDOT":0},{"OBJECT_NAME":"ICEYE-X76","OBJECT_ID":"2026-067CQ","EPOCH":"2026-07-22T14:35:00.883104","CLASSIFICATION_TYPE":"U","MEAN_MOTION":14.91760465,"ECCENTRICITY":0.00005459,"INCLINATION":97.7644,"RA_OF_ASC_NODE":161.333,"ARG_OF_PERICENTER":215.7113,"MEAN_ANOMALY":144.4069,"EPHEMERIS_TYPE":0,"NORAD_CAT_ID":68502,"ELEMENT_SET_NO":999,"REV_AT_EPOCH":1700,"BSTAR":0.000067942604,"MEAN_MOTION_DOT":0.00000629,"MEAN_MOTION_DDOT":0}]}
