ICEYE-X53               
1 64584U 25135BJ  26204.29196706  .00003809  00000+0  30369-3 0  9990
2 64584  97.7348 320.9127 0002290 163.3713 196.7586 15.00927253 59491
ICEYE-X65               
1 66300U 25248H   26204.32181026  .00002964  00000+0  20571-3 0  9991
2 66300  45.4055 304.1629 0006217 239.4737 120.5532 15.07967303 40975
ICEYE-X66               
1 66301U 25248J   26204.31276159  .00003133  00000+0  20939-3 0  9990
2 66301  45.4021 303.2063 0005834 235.4755 124.5576 15.09219337 40961
ICEYE-X67               
1 66302U 25248K   26204.27135367  .00003400  00000+0  22599-3 0  9992
2 66302  45.4056 303.0072 0007336 236.4002 123.6180 15.09199939 40970
ICEYE-X58               
1 66751U 25276CP  26204.19324612  .00002407  00000+0  12397-3 0  9996
2 66751  97.4189 276.9072 0002934 180.9063 179.2166 15.17338416 35877
ICEYE-X59               
1 66752U 25276CQ  26204.14668702  .00004209  00000+0  33582-3 0  9994
2 66752  97.4407 273.9083 0001474 126.1694 233.9667 15.00803759 35660
ICEYE-X60               
1 66753U 25276CR  26202.42565852  .00004036  00000+0  24564-3 0  9994
2 66753  97.4208 274.0787 0002125 166.7579 193.3708 15.10963354 35539
ICEYE-X61               
1 66754U 25276CS  26204.20457127  .00002887  00000+0  14268-3 0  9990
2 66754  97.4182 277.0228 0002930 182.2757 177.8465 15.18642050 35889
ICEYE-X62               
1 66755U 25276CT  26204.17647176  .00005203  00000+0  32215-3 0  9999
2 66755  97.4178 275.2573 0001409 195.1789 164.9399 15.10207079 35766
ICEYE-X63               
1 67372U 26004K   26203.71403206  .00000708  00000+0  82401-4 0  9996
2 67372  97.8019 201.8013 0004916  32.2134 327.9382 14.88358842 28589
ICEYE-X64               
1 67373U 26004L   26203.69731545  .00000898  00000+0  10379-3 0  9998
2 67373  97.8032 201.7010 0006732  33.5498 326.6144 14.87999271 28573
ICEYE-X71               
1 68494U 26067CG  26204.00002315 -.00027924  00000+0 -27318-2 0  9995
2 68494  97.7615 161.6871 0000475 224.6240  48.7915 14.92437526  5758
ICEYE-X73               
1 68496U 26067CJ  26203.83847202  .00002303  00000+0  23051-3 0  9992
2 68496  97.7627 161.6233 0002082 136.7426 223.3957 14.92374863 17046
ICEYE-X75               
1 68497U 26067CK  26203.84387788  .00001088  00000+0  11233-3 0  9990
2 68497  97.7610 161.5922 0002017 133.2738 226.8649 14.92186768 17040
ICEYE-X74               
1 68500U 26067CN  26204.14810914  .00002064  00000+0  21007-3 0  9996
2 68500  97.7638 161.8473 0000332 241.2048 118.9137 14.91819386 17086
ICEYE-X76               
1 68502U 26067CQ  26203.60764911  .00000629  00000+0  67943-4 0  9998
2 68502  97.7644 161.3330 0000545 215.7113 144.4069 14.91760465 17000
